NORAD_CAT_ID,OBJECT_NAME,OBJECT_TYPE,EPOCH,MEAN_MOTION,ECCENTRICITY,INCLINATION,RA_OF_ASC_NODE,ARG_OF_PERICENTER,MEAN_ANOMALY,BSTAR,MEAN_MOTION_DOT,MEAN_MOTION_DDOT,TLE_LINE0,TLE_LINE1,TLE_LINE2,SEMIMAJOR_AXIS,PERIOD,APOGEE,PERIGEE,DECAYED
55272.0,STARLINK-5310,PAYLOAD,2023-06-11 02:29:09,14.98334672,0.0003072,70.0009,52.5169,269.1692,90.9116,-1.1639e-05,-2.32e-06,0.0,0 STARLINK-5310,1 55272U 23010D   23162.10358163 -.00000232  00000-0 -11639-4 0  9991,2 55272  70.0009  52.5169 0003072 269.1692  90.9116 14.98334672 22292,6950.178,96.107,574.179,569.908,0.0
55272.0,STARLINK-5310,PAYLOAD,2023-06-11 10:29:50,14.98323006,0.0002991,70.0012,51.6753,260.0195,100.0627,0.00014038,1.582e-05,0.0,0 STARLINK-5310,1 55272U 23010D   23162.43738483  .00001582  00000-0  14038-3 0  9996,2 55272  70.0012  51.6753 0002991 260.0195 100.0627 14.98323006 22651,6950.215,96.107,574.158,570.001,0.0
55272.0,STARLINK-5310,PAYLOAD,2023-06-11 15:18:14,14.98327295,0.0003115,70.001,51.1702,269.1712,90.909,8.8029e-05,9.57e-06,0.0,0 STARLINK-5310,1 55272U 23010D   23162.63766290  .00000957  00000-0  88029-4 0  9992,2 55272  70.0010  51.1702 0003115 269.1712  90.9090 14.98327295 22680,6950.201,96.107,574.231,569.901,0.0
55272.0,STARLINK-5310,PAYLOAD,2023-06-12 02:31:10,14.98331928,0.0003126,70.001,49.9922,269.6178,90.4623,7.9356e-05,8.54e-06,0.0,0 STARLINK-5310,1 55272U 23010D   23163.10498024  .00000854  00000-0  79356-4 0  9991,2 55272  70.0010  49.9922 0003126 269.6178  90.4623 14.98331928 22441,6950.187,96.107,574.225,569.879,0.0
55272.0,STARLINK-5310,PAYLOAD,2023-06-13 02:33:11,14.98332787,0.0003018,70.0011,47.467,270.5276,89.5537,1.107e-05,3.9e-07,0.0,0 STARLINK-5310,1 55272U 23010D   23164.10638059  .00000039  00000-0  11070-4 0  9990,2 55272  70.0011  47.4670 0003018 270.5276  89.5537 14.98332787 22598,6950.184,96.107,574.147,569.952,0.0
55272.0,STARLINK-5310,PAYLOAD,2023-06-13 20:10:40,14.98328773,0.0002987,70.0012,45.6157,272.7291,87.3526,-2.7008e-05,-4.15e-06,0.0,0 STARLINK-5310,1 55272U 23010D   23164.84074374 -.00000415  00000-0 -27008-4 0  9993,2 55272  70.0012  45.6157 0002987 272.7291  87.3526 14.98328773 23016,6950.197,96.107,574.138,569.986,0.0
55272.0,STARLINK-5310,PAYLOAD,2023-06-14 00:59:04,14.98328351,0.0003017,70.0012,45.1107,274.6198,85.4616,-1.6432e-05,-2.89e-06,0.0,0 STARLINK-5310,1 55272U 23010D   23165.04102389 -.00000289  00000-0 -16432-4 0  9992,2 55272  70.0012  45.1107 0003017 274.6198  85.4616 14.98328351 22737,6950.198,96.107,574.16,569.966,0.0
55272.0,STARLINK-5310,PAYLOAD,2023-06-14 15:24:16,14.98331582,0.0002999,70.001,43.5959,272.7444,87.3372,-3.2678e-06,-1.32e-06,0.0,0 STARLINK-5310,1 55272U 23010D   23165.64186088 -.00000132  00000-0 -32678-5 0  9994,2 55272  70.0010  43.5959 0002999 272.7444  87.3372 14.98331582 23138,6950.188,96.107,574.137,569.969,0.0
55272.0,STARLINK-5310,PAYLOAD,2023-06-15 01:01:05,14.98330734,0.0003042,70.0008,42.586,270.0231,90.058,-1.7668e-05,-3.04e-06,0.0,0 STARLINK-5310,1 55272U 23010D   23166.04242108 -.00000304  00000-0 -17668-4 0  9997,2 55272  70.0008  42.5860 0003042 270.0231  90.0580 14.98330734 22881,6950.191,96.107,574.17,569.941,0.0
55272.0,STARLINK-5310,PAYLOAD,2023-06-15 18:38:34,14.98327648,0.0003083,70.0006,40.7343,269.704,90.3766,-1.5838e-05,-2.82e-06,0.0,0 STARLINK-5310,1 55272U 23010D   23166.77678325 -.00000282  00000-0 -15838-4 0  9993,2 55272  70.0006  40.7343 0003083 269.7040  90.3766 14.98327648 23300,6950.2,96.107,574.208,569.922,0.0
55272.0,STARLINK-5310,PAYLOAD,2023-06-16 01:03:06,14.98330532,0.0003058,70.0006,40.0609,268.7159,91.3649,1.8654e-05,1.3e-06,0.0,0 STARLINK-5310,1 55272U 23010D   23167.04382045  .00000130  00000-0  18654-4 0  9994,2 55272  70.0006  40.0609 0003058 268.7159  91.3649 14.98330532 23037,6950.191,96.107,574.182,569.931,0.0
55272.0,STARLINK-5310,PAYLOAD,2023-06-16 09:03:45,14.98339236,0.0003284,70.0005,39.2191,263.1799,96.8986,-7.8689e-05,-1.032e-05,0.0,0 STARLINK-5310,1 55272U 23010D   23167.37761563 -.00001032  00000-0 -78689-4 0  9994,2 55272  70.0005  39.2191 0003284 263.1799  96.8986 14.98339236 23395,6950.164,96.106,574.312,569.747,0.0
55272.0,STARLINK-5310,PAYLOAD,2023-06-16 17:04:26,14.98333882,0.0003101,70.0004,38.3773,268.9949,91.0855,4.823e-05,4.83e-06,0.0,0 STARLINK-5310,1 55272U 23010D   23167.71141630  .00000483  00000-0  48230-4 0  9995,2 55272  70.0004  38.3773 0003101 268.9949  91.0855 14.98333882 23447,6950.181,96.107,574.201,569.891,0.0
55272.0,STARLINK-5310,PAYLOAD,2023-06-17 09:05:47,14.98324638,0.0003298,70.0003,36.6942,267.5603,92.5178,-2.4881e-05,-3.9e-06,0.0,0 STARLINK-5310,1 55272U 23010D   23168.37902153 -.00000390  00000-0 -24881-4 0  9998,2 55272  70.0003  36.6942 0003298 267.5603  92.5178 14.98324638 23234,6950.209,96.107,574.367,569.782,0.0
55272.0,STARLINK-5310,PAYLOAD,2023-06-17 21:54:52,14.98321182,0.0002989,70.0002,35.3476,266.593,93.4887,-0.00011004,-1.405e-05,0.0,0 STARLINK-5310,1 55272U 23010D   23168.91310944 -.00001405  00000-0 -11004-3 0  9999,2 55272  70.0002  35.3476 0002989 266.5930  93.4887 14.98321182 23620,6950.22,96.108,574.163,570.008,0.0
55272.0,STARLINK-5310,PAYLOAD,2023-06-18 01:07:08,14.9832063,0.0003158,70.0003,35.0114,266.7897,93.29,-0.00011061,-1.412e-05,0.0,0 STARLINK-5310,1 55272U 23010D   23169.04663055 -.00001412  00000-0 -11061-3 0  9999,2 55272  70.0003  35.0114 0003158 266.7897  93.2900 14.98320630 23339,6950.222,96.108,574.282,569.892,0.0
55272.0,STARLINK-5310,PAYLOAD,2023-06-19 01:09:09,14.98333204,0.0003095,70.0005,32.4865,266.6922,93.3883,-3.8463e-05,-5.52e-06,0.0,0 STARLINK-5310,1 55272U 23010D   23170.04802304 -.00000552  00000-0 -38463-4 0  9993,2 55272  70.0005  32.4865 0003095 266.6922  93.3883 14.98333204 23481,6950.183,96.107,574.199,569.897,0.0
55272.0,STARLINK-5310,PAYLOAD,2023-06-20 01:11:09,14.98333902,0.0003229,70.0001,29.9613,265.7332,94.3458,0.00020752,2.384e-05,0.0,0 STARLINK-5310,1 55272U 23010D   23171.04941432  .00002384  00000-0  20752-3 0  9994,2 55272  70.0001  29.9613 0003229 265.7332  94.3458 14.98333902 23634,6950.181,96.107,574.29,569.802,0.0
55272.0,STARLINK-5310,PAYLOAD,2023-06-20 07:35:41,14.98348455,0.0003342,70.0002,29.2877,269.6551,90.4225,-0.00011499,-1.466e-05,0.0,0 STARLINK-5310,1 55272U 23010D   23171.31645214 -.00001466  00000-0 -11499-3 0  9993,2 55272  70.0002  29.2877 0003342 269.6551  90.4225 14.98348455 23988,6950.136,96.106,574.324,569.678,0.0
55272.0,STARLINK-5310,PAYLOAD,2023-06-20 17:12:30,14.98329699,0.0002782,70.0019,28.28,261.7366,98.3477,5.0848e-05,5.14e-06,0.0,0 STARLINK-5310,1 55272U 23010D   23171.71702191  .00000514  00000-0  50848-4 0  9998,2 55272  70.0019  28.2800 0002782 261.7366  98.3477 14.98329699 23733,6950.194,96.107,573.992,570.125,0.0
55272.0,STARLINK-5310,PAYLOAD,2023-06-20 20:24:46,14.98329235,0.0002995,70.0009,27.9429,264.3422,95.7396,-1.1734e-05,-2.33e-06,0.0,0 STARLINK-5310,1 55272U 23010D   23171.85054339 -.00000233  00000-0 -11734-4 0  9998,2 55272  70.0009  27.9429 0002995 264.3422  95.7396 14.98329235 24067,6950.195,96.107,574.142,569.979,0.0
55272.0,STARLINK-5310,PAYLOAD,2023-06-20 23:37:03,14.98329059,0.000282,70.0013,27.6055,263.3764,96.7074,2.1171e-05,1.6e-06,0.0,0 STARLINK-5310,1 55272U 23010D   23171.98406250  .00000160  00000-0  21171-4 0  9998,2 55272  70.0013  27.6055 0002820 263.3764  96.7074 14.98329059 24089,6950.196,96.107,574.021,570.101,0.0
55272.0,STARLINK-5310,PAYLOAD,2023-06-21 18:50:39,14.9833272,0.000295,70.001,25.5864,259.2843,100.7984,-8.9774e-05,-1.164e-05,0.0,0 STARLINK-5310,1 55272U 23010D   23172.78518052 -.00001164  00000-0 -89774-4 0  9991,2 55272  70.0010  25.5864 0002950 259.2843 100.7984 14.98332720 23890,6950.184,96.107,574.1,569.999,0.0
55272.0,STARLINK-5310,PAYLOAD,2023-06-21 20:26:47,14.9833177,0.0002993,70.001,25.4179,261.2542,98.8278,-9.3021e-05,-1.203e-05,0.0,0 STARLINK-5310,1 55272U 23010D   23172.85194116 -.00001203  00000-0 -93021-4 0  9994,2 55272  70.0010  25.4179 0002993 261.2542  98.8278 14.98331770 24218,6950.187,96.107,574.133,569.972,0.0
55272.0,STARLINK-5310,PAYLOAD,2023-06-22 18:52:39,14.98353636,0.0003053,70.0004,23.0598,273.229,86.8519,-0.00041201,-5.009e-05,0.0,0 STARLINK-5310,1 55272U 23010D   23173.78657262 -.00005009  00000-0 -41201-3 0  9993,2 55272  70.0004  23.0598 0003053 273.2290  86.8519 14.98353636 24042,6950.12,96.105,574.107,569.863,0.0
55272.0,STARLINK-5310,PAYLOAD,2023-06-22 23:41:04,14.98332579,0.00032,70.0004,22.5549,269.6127,90.4665,1.9488e-05,1.4e-06,0.0,0 STARLINK-5310,1 55272U 23010D   23173.98685624  .00000140  00000-0  19488-4 0  9990,2 55272  70.0004  22.5549 0003200 269.6127  90.4665 14.98332579 24073,6950.185,96.107,574.274,569.826,0.0
55272.0,STARLINK-5310,PAYLOAD,2023-06-23 23:43:05,14.98332111,0.0003241,70.0004,20.0304,270.4248,89.654,3.7035e-05,3.49e-06,0.0,0 STARLINK-5310,1 55272U 23010D   23174.98825559  .00000349  00000-0  37035-4 0  9993,2 55272  70.0004  20.0304 0003241 270.4248  89.6540 14.98332111 24225,6950.186,96.107,574.304,569.799,0.0
55272.0,STARLINK-5310,PAYLOAD,2023-06-24 23:45:06,14.98332335,0.0003211,70.0005,17.5056,270.7362,89.3429,9.5396e-06,2.1e-07,0.0,0 STARLINK-5310,1 55272U 23010D   23175.98965610  .00000021  00000-0  95396-5 0  9999,2 55272  70.0005  17.5056 0003211 270.7362  89.3429 14.98332335 24375,6950.186,96.107,574.282,569.819,0.0
55272.0,STARLINK-5310,PAYLOAD,2023-06-25 23:47:07,14.98333352,0.0003106,70.0007,14.9809,270.7906,89.2897,3.8007e-05,3.61e-06,0.0,0 STARLINK-5310,1 55272U 23010D   23176.99105397  .00000361  00000-0  38007-4 0  9991,2 55272  70.0007  14.9809 0003106 270.7906  89.2897 14.98333352 24526,6950.183,96.107,574.206,569.889,0.0
55272.0,STARLINK-5310,PAYLOAD,2023-06-26 15:48:28,14.98327697,0.0003127,70.0006,13.2975,271.0041,89.076,-2.4733e-05,-3.88e-06,0.0,0 STARLINK-5310,1 55272U 23010D   23177.65865929 -.00000388  00000-0 -24733-4 0  9991,2 55272  70.0006  13.2975 0003127 271.0041  89.0760 14.98327697 24621,6950.2,96.107,574.238,569.892,0.0
